#cP2022  1  4  0  0  0.00000000      96 ORBIT IGb14 HLM  IGS
## 2191 172800.00000000   900.00000000 59583 0.0000000000000
+   32   G01G02G03G04G05G06G07G08G09G10G11G12G13G14G15G16G17
+        G18G19G20G21G22G23G24G25G26G27G28G29G30G31G32  0  0
+          0  0  0  0  0  0  0  0  0  0  0  0  0  0  0  0  0
+          0  0  0  0  0  0  0  0  0  0  0  0  0  0  0  0  0
+          0  0  0  0  0  0  0  0  0  0  0  0  0  0  0  0  0
++         1  2  2  2  2  1  1  2  1  2  2  2  2  2  1  2  2
++         2  2  2  2  2  2  2  2  2  2  2  2  1  1  1  0  0
++         0  0  0  0  0  0  0  0  0  0  0  0  0  0  0  0  0
++         0  0  0  0  0  0  0  0  0  0  0  0  0  0  0  0  0
++         0  0  0  0  0  0  0  0  0  0  0  0  0  0  0  0  0
%c G  cc GPS ccc cccc cccc cccc cccc ccccc ccccc ccccc ccccc
%c cc cc ccc ccc cccc cccc cccc cccc ccccc ccccc ccccc ccccc
%f  1.2500000  1.025000000  0.00000000000  0.000000000000000
%f  0.0000000  0.000000000  0.00000000000  0.000000000000000
%i    0    0    0    0      0      0      0      0         0
%i    0    0    0    0      0      0      0      0         0
/* FINAL ORBIT COMBINATION FROM WEIGHTED AVERAGE OF:        
/* cod emr esa gfz grg jpl mit ngs sio                      
/* REFERENCED TO IGS TIME (IGST) AND TO WEIGHTED MEAN POLE: 
/* PCV:IGS14_2188 OL/AL:FES2004  NONE     Y  ORB:CMB CLK:CMB
*  2022  1  4 18  0  0.00000000
PG01 -20974.904637 -14216.852080  -8802.311365    465.893824  5  4  5  56       
PG02   1067.895322  16013.382364  21813.881106   -647.748552  4  3  3  85       
PG03 -12702.454193 -18923.490223  13621.881742    -65.682617  4  3  4  96       
PG04 -13423.746204  -8432.999016  21322.690710   -196.406499  3  6  5  90       
PG05   5305.266205  25935.526549    361.802315    -66.768023  7  3  7  57       
PG06 -15453.551957   8391.083905  19995.694937    161.510326  5  2  3  84       
PG07 -25575.912806  -5065.556514  -5909.862787    298.434925  3  4  5  50       
PG08  -3369.330981 -16128.036158 -20775.027255    -50.795840  3  3  5  84       
PG09 -20766.753199   2721.816909  16278.487686   -358.867950  4  3  4  91       
PG10  12545.811617 -10416.093248 -20767.663783   -285.328436  7  7  8  73       
PG11  -1445.635020  15654.250605  21406.874946    -12.339884  6 10  7 113       
PG12  10214.755850  21469.933546  11718.721024   -150.934461  3  8  6  72       
PG13  -5703.153653  18468.274045 -18300.743657    240.127484  4  6  6  51       
PG14 -13470.242359   9814.341091 -20670.184363    -65.849206  5  5  4  94       
PG15   6217.108363  15927.142672 -20664.199594    -94.030915  3  5  4  71       
PG16     52.012722 -26077.373682   3194.277053   -450.820038  5  7  5 100       
PG17 -22589.798444  13282.485574  -4013.202131    556.882577     3  4  46       
PG18  25210.146209   4528.547326  -7226.137558    267.088393  4  7  7 102       
PG19 -20386.551705  16453.481921   3487.225024    101.218512  3  4  4  59       
PG20   -172.967296  24353.529097  10894.013950    517.317969  4  7  5  88       
PG21 -14891.119021 -15404.117224 -15391.607491    155.376480  5  6  5  31       
PG22 -10999.133316 -23703.477513   5529.218348   -425.257117  7  7  6  98       
PG23  15539.688618   2284.204093 -21446.416369     14.572086  4  8  6 114       
PG24  18467.320564  14921.134683 -12605.541859    276.895961  4  6  7  89       
PG25  15293.264231  10585.692131  18791.600083    266.019136  2  3  5  36       
PG26   6865.757049 -20377.632223  15315.744861    171.371333  6  2  5  91       
PG27   7408.180064 -20073.966690 -15664.873245     48.357194  4  5  4  93       
PG28  -9946.932221  17884.138713 -16524.843098    428.982891  6  5  6  96       
PG29  18903.427934   1702.614685  18563.822725   -463.040987  1  3  5  69       
PG30 -22123.683989   2858.133547 -14525.092898   -504.404008  5  3  4  52       
PG31  13873.785757  -9986.247990  20321.486730   -158.369132  5  3  5  77       
PG32  20599.599383 -16567.886533   -970.553235    -45.361178  3  4  6 107       
*  2022  1  4 18 15  0.00000000
PG01 -19886.664190 -13983.379558 -11374.310892    465.884922  5  4  5  62       
PG02  -1248.168740  15474.458938  22211.324360   -647.749638  5  3  3  79       
PG03 -12818.229685 -20362.976351  11258.906041    -65.695384  4  2  4 100       
PG04 -11552.909573 -10032.769636  21715.072606   -196.405111  3  6  5  99       
PG05   4988.302908  25784.456937   3214.048195    -66.769400  7  3  6  53       
PG06 -17499.002333   7616.833128  18570.002037    161.519894  5  2  3  86       
PG07 -26023.291135  -5475.247047  -3165.722666    298.438012  3  3  5  77       
PG08  -1598.391126 -17630.780475 -19708.422995    -50.796553  3  3  5  87       
PG09 -19431.349343   1256.936074  18004.035675   -358.867078  5  3  4  90       
PG10  13116.121499  -8034.852377 -21482.711481   -285.336947  6  6  8  82       
PG11  -3753.682912  14775.638664  21746.963170    -12.371245  7 10  7 116       
PG12  10184.485436  22711.136512   9201.395588   -150.939642  4  9  6  71       
PG13  -7417.486705  19451.723844 -16556.541438    240.132902  4  6  6  86       
PG14 -13929.357266   7451.167493 -21347.386337    -65.854283  6  5  4  85       
PG15   4643.096843  17537.328981 -19704.723660    -94.028893  3  5  4  86       
PG16    373.915722 -25546.890738   6032.627913   -450.824826  5  7  5  97       
PG17 -22186.295212  12714.219444  -6815.828546    556.887048  1  3  4  58       
PG18  25767.125455   4951.132278  -4461.924590    267.081995  4  6  7 104       
PG19 -20727.173430  16430.184651    597.553691    101.223100  3  4  4  46       
PG20   -878.823725  23148.592491  13212.538385    517.317499  4  7  5  77       
PG21 -12948.483523 -15085.801489 -17216.931476    155.377020  4  6  5  52       
PG22 -10857.943467 -24227.443974   2784.448496   -425.249264  7  8  5  90       
PG23  16035.401795   4637.679415 -20696.062235     14.568512  3  8  6 113       
PG24  16944.468097  14772.090659 -14748.023550    276.896477  4  6  7 103       
PG25  15596.884924  12671.141385  17233.958496    266.024290  2  3  5  57       
PG26   7559.486304 -18608.811606  17150.736536    171.374394  5  2  4  90       
PG27   8759.728986 -21038.966961 -13493.314961     48.379079  3  5  5 102       
PG28 -10314.152620  15838.837926 -18224.381650    428.975749  5  4  5 111       
PG29  17209.441362   3118.013393  19966.377105   -463.045232  1  3  5  93       
PG30 -23501.176770   2117.559928 -12356.972386   -504.406491  5  3  4  54       
PG31  15984.343418  -9134.983707  19187.491730   -158.371027  5  3  5  61       
PG32  20572.374247 -16168.237560  -3813.799928    -45.366452  3  4  6  94       
*  2022  1  4 18 30  0.00000000
PG01 -18520.397165 -13737.879224 -13756.608941    465.876002  5  4  5  92       
PG02  -3612.116744  15058.667521  22248.880446   -647.750651  5  3  3  90       
PG03 -12939.299826 -21523.830991   8702.261134    -65.708182  5  3  2  91       
PG04  -9750.479789 -11744.358040  21733.991738   -196.403663  3  6  5 104       
PG05   4566.934642  25343.372728   6010.324220    -66.770739  7  4  6  71       
PG06 -19411.633840   7005.268412  16827.204019    161.529445  4  2  4  92       
PG07 -26191.827316  -5775.993808   -368.387140    298.441690  3  4  4  74       
PG08     -3.531950 -19124.477081 -18300.076650    -50.797845  3  3  5  78       
PG09 -18048.598139   -402.929010  19418.352191   -358.866155  5  3  3  94       
PG10  13827.778411  -5631.811399 -21822.286882   -285.345513  6  6  8  83       
PG11  -6121.049518  14013.278329  21712.782013    -12.402651  7 10  6 118       
PG12  10166.039139  23660.862012   6525.259410   -150.944985  4  9  6  89       
PG13  -8909.776793  20395.918175 -14528.672806    240.138117  4  6  5  61       
PG14 -14520.759785   5060.670820 -21657.123947    -65.859397  6  5  3  88       
PG15   3221.270152  19125.193217 -18414.600785    -94.026170  2  5  4  89       
PG16    780.069215 -24718.288936   8763.441234   -450.830109  6  7  5 102       
PG17 -21581.741976  11912.940924  -9499.819285    556.892036  2  3  4  62       
PG18  26041.442303   5255.585794  -1621.387491    267.075588  3  5  6  92       
PG19 -20810.975778  16218.966553  -2302.548499    101.227509  3  4  4  59       
PG20  -1744.443642  21752.487229  15306.418585    517.317667  5  6  6  68       
PG21 -10794.375153 -14833.916747 -18737.062553    155.378204  5  6  5  89       
PG22 -10629.464738 -24468.699530     -7.515101   -425.241276  7  8  5 100       
PG23  16625.477401   6860.107281 -19590.736934     14.564966  3  8  6 106       
PG24  15195.585879  14656.207485 -16645.779065    276.897017  4  6  7 101       
PG25  15956.572544  14547.071297  15376.802696    266.029425  3  3  5  66       
PG26   8395.363660 -16694.524458  18685.604975    171.377467  5  1  3  96       
PG27   9877.277173 -21891.137231 -11087.581904     48.400830  3  5  5 100       
PG28 -10820.942940  13636.702370 -19599.294462    428.968426  5  4  5  92       
PG29  15490.570371   4717.306433  21024.703382   -463.050013  2  3  5  85       
PG30 -24666.414332   1517.025843  -9977.982196   -504.408942  5  2  3  83       
PG31  17991.111795  -8436.771656  17724.466529   -158.372308  5  3  5  76       
PG32  20341.997630 -15538.858106  -6590.516141    -45.371741  2  4  6  92       
EOF
